[{"OBJECT_NAME":"STARLINK-4262","OBJECT_ID":"2022-076AF","EPOCH":"2026-03-09T10:07:12.160128","MEAN_MOTION":15.08842836,"ECCENTRICITY":0.0001302,"INCLINATION":53.2155,"RA_OF_ASC_NODE":85.3231,"ARG_OF_PERICENTER":100.4168,"MEAN_ANOMALY":259.6971,"EPHEMERIS_TYPE":0,"CLASSIFICATION_TYPE":"U","NORAD_CAT_ID":53015,"ELEMENT_SET_NO":999,"REV_AT_EPOCH":20294,"BSTAR":6.9976886e-5,"MEAN_MOTION_DOT":8.26e-6,"MEAN_MOTION_DDOT":0},{"OBJECT_NAME":"PEGASUS R\/B","OBJECT_ID":"2019-068B","EPOCH":"2026-03-09T22:22:48.049248","MEAN_MOTION":15.04682366,"ECCENTRICITY":0.00118062,"INCLINATION":26.9924,"RA_OF_ASC_NODE":328.8145,"ARG_OF_PERICENTER":174.3111,"MEAN_ANOMALY":185.7586,"EPHEMERIS_TYPE":0,"CLASSIFICATION_TYPE":"U","NORAD_CAT_ID":44629,"ELEMENT_SET_NO":999,"REV_AT_EPOCH":35103,"BSTAR":0.00027730034,"MEAN_MOTION_DOT":4.233e-5,"MEAN_MOTION_DDOT":0}]
